IRIDIUM 33 DEB          
1 35799U 97051SH  17345.86887169  .00003369  00000-0  81125-3 0  9999
2 35799  85.9375  39.9716 0080360 319.0175  40.5006 14.51054233457098
